[{"OBJECT_NAME":"STARLINK-30103","OBJECT_ID":"2023-056E","EPOCH":"2026-03-09T22:00:01.999584","MEAN_MOTION":15.26736868,"ECCENTRICITY":0.00023268,"INCLINATION":42.9993,"RA_OF_ASC_NODE":207.4054,"ARG_OF_PERICENTER":264.6,"MEAN_ANOMALY":232.0817,"EPHEMERIS_TYPE":0,"CLASSIFICATION_TYPE":"U","NORAD_CAT_ID":56290,"ELEMENT_SET_NO":999,"REV_AT_EPOCH":572,"BSTAR":0.0017273975,"MEAN_MOTION_DOT":0.00046364,"MEAN_MOTION_DDOT":0},{"OBJECT_NAME":"TRANSPORTER-1 OBJECT Z","OBJECT_ID":"2021-006Z","EPOCH":"2026-03-09T22:55:57.522432","MEAN_MOTION":15.30965056,"ECCENTRICITY":0.00100878,"INCLINATION":97.2377,"RA_OF_ASC_NODE":113.4736,"ARG_OF_PERICENTER":179.6869,"MEAN_ANOMALY":180.438,"EPHEMERIS_TYPE":0,"CLASSIFICATION_TYPE":"U","NORAD_CAT_ID":47436,"ELEMENT_SET_NO":999,"REV_AT_EPOCH":28420,"BSTAR":0.00024088983,"MEAN_MOTION_DOT":7.143e-5,"MEAN_MOTION_DDOT":0}]
